FeatureName,Region,NGR,East,North,Lat,Long,LatLong,TreatmentOfRemains,MNIWithinDeposit,SexOfIndsWithin Deposit,AgeOfFindsWithinDeposit,ArtefactsInDepositList,SexSingleDeposits,AgeSingleDeposits,ArtefactsSingleDeposits,SexGroupDeposits,AgeGroupDeposits,ArtefactsGroupDeposits,SitesWithUnknownSex,TerminusPostQuemBC,TerminusAnteQuemBC,MedianBC,DecadeOfExcavation,generated
Allerwash cist,Northumberland,NY871673,387100,567300,55.000103,-2.2031893,"55.000103,-2.2031893",Uncremated remains,1,Male,Adult,Bronze dagger,Male,Adult,Bronze dagger,,,,,2153,2030,2091,1970,0
Altonside cist,Northumberland,NY856649,385600,564900,54.978495,-2.2265159,"54.978495,-2.2265159",Crouched burial,N/a,N/a,N/a,Beaker,,,,,,,N/a,2300,2100,2200,1970,1
Alwinton cairn cremation deposit 1,Northumberland,NT9305,393000,605000,55.338991,-2.1119062,"55.338991,-2.1119062",Cremation,1,Indet.,Adult,,Indet.,Adult,,,,,Indet.,2000,,2000,1877,2
Alwinton cairn cremation deposit 2,Northumberland,NT9305,393000,605000,55.338991,-2.1119062,"55.338991,-2.1119062",Cremation,1,Indet.,Adult,,Indet.,Adult,,,,,Indet.,2000,,2000,1877,3
Alwinton cairn cremation deposit 3,Northumberland,NT9305,393000,605000,55.338991,-2.1119062,"55.338991,-2.1119062",Cremation,1,Indet.,Indet.,,Indet.,Indet.,,,,,Indet.,2000,,2000,1877,4
Amble cist,Northumberland,NU273052,427300,605200,55.340088,-1.5711391,"55.340088,-1.5711391",Crouched burial,1,Indet.,Indet.,Beaker,Indet.,Indet.,Beaker,,,,Indet.,2300,2100,2200,1850,5
Ancroft cist,Northumberland,NU041456,404100,645600,55.703832,-1.9363260,"55.703832,-1.9363260",Crouched burial,1,Male,Adult,Beaker,Male,Adult,Beaker,,,,,2300,2100,2200,1890,6
Angerton cist,Northumberland,NZ100848,410000,584800,55.157430,-1.8446026,"55.157430,-1.8446026",Crouched burial,1,Possible Female,Adult,"Bronze dagger,Flint knife,Flint hammer,Shale Beads",Possible Female,Adult,"Bronze dagger, Flint knife, Flint hammer, Shale Beads",,,,,2200,1750,1975,1840,7
Batter Law round barrow cist,County Durham,NZ40604599,440600,545990,54.807141,-1.3698780,"54.807141,-1.3698780",Crouched burial,1,Male,Adult,Flint knife,Male,Adult,Flint knife,,,,,2200,1750,1975,1910,8
Bedlington cist 1,Northumberland,NZ2626081490,426260,581490,55.127096,-1.5897326,"55.127096,-1.5897326",Crouched burial,1,Possible Female,Adult,Food Vessel,Possible Female,Adult,Food Vessel,,,,,2300,1750,2025,1930,9
Bedlington cist 2,Northumberland,NZ2626081490,426260,581490,55.127096,-1.5897326,"55.127096,-1.5897326",Crouched burial,Indet.,Indet.,Indet.,Beaker,,,,,,,Indet.,2300,2100,2200,1930,10
Bedlington cist 3,Northumberland,NZ2626081490,426260,581490,55.127096,-1.5897326,"55.127096,-1.5897326",Cremation,N/a,N/a,N/a,Flint knife,,,,,,,N/a,2300,1750,2025,1930,11
Bedlington cist 4,Northumberland,NZ2626081490,426260,581490,55.127096,-1.5897326,"55.127096,-1.5897326",Cremation,Indet.,N/a,N/a,Food Vessel,,,,,,,N/a,2150,1750,1950,1930,12
Bedlington cist 5,Northumberland,NZ2626081490,426260,581490,55.127096,-1.5897326,"55.127096,-1.5897326",Crouched burial,1,N/a,Adult,,N/a,Adult,,,,,N/a,2300,1750,2025,1930,13
Benthall cist 1,Northumberland,NU237289,423700,628900,55.553225,-1.6258869,"55.553225,-1.6258869",Crouched burial,1,Possible Male,Adult,,Possible Male,Adult,,,,,,2300,1750,2025,1930,14
Benthall cist 2,Northumberland,NU237289,423700,628900,55.553225,-1.6258869,"55.553225,-1.6258869",Crouched burial,1,Possible Female,Adult,Food Vessel,Possible Female,Adult,Food Vessel,,,,,2150,1750,1950,1930,15
Bewes Hill (Stargate),Tyne and Wear,NZ17076301,417070,563010,54.961434,-1.7349445,"54.961434,-1.7349445",Uncremated remains,1,Possible Male,Adult,Flint knife,Possible Male,Adult,Flint knife,,,,,2200,1750,1975,1930,16
Birkside Fell cairn pit,Northumberland,NY934512,393400,551200,54.855550,-2.1043302,"54.855550,-2.1043302",Multiple cremation,2,Multiple,Adult,"Collared urn,Flint flakes",,,,Male + Indet.,Adult,"Collared urn, Flint flakes",,2000,1700,1850,1990,17
Blawaerie cairn 1 pyre pit,Northumberland,NU08172229,408170,622290,55.494336,-1.8722454,"55.494336,-1.8722454",Unclear,1,Indet.,Adult,,Indet.,Adult,,,,,Indet.,2000,,2000,1980,18
Blawaerie cairn 1 southern pit ,Northumberland,NU08172229,408170,622290,55.494336,-1.8722454,"55.494336,-1.8722454",Multiple cremation,2,Multiple,Adult,Food Vessel,,,,Possible Male + Indet.,Adult,Food Vessel,,2050,1700,1875,1980,19
Blawaerie cairn 1 stone-lined pit,Northumberland,NU08172229,408170,622290,55.494336,-1.8722454,"55.494336,-1.8722454",Cremation,1,Indet.,Adolescent,,Indet.,Adolescent,,,,,Indet.,2000,,2000,1980,20
Blawearie cairn 1 cist 1 ,Northumberland,NU08172229,408170,622290,55.494336,-1.8722454,"55.494336,-1.8722454",Unclear,N/a,N/a,N/a,Food Vessel,,,,,,,N/a,2300,1750,2025,1860,21
Blawearie cairn 1 cist A (Gw cist 2),Northumberland,NU08172229,408170,622290,55.494336,-1.8722454,"55.494336,-1.8722454",Crouched burial,N/a,N/a,N/a,Food Vessel,,,,,,,N/a,2150,1750,1950,1860,22
Blawearie cairn 1 cist B (Gw cist 3),Northumberland,NU08172229,408170,622290,55.494336,-1.8722454,"55.494336,-1.8722454",Crouched burial,N/a,N/a,N/a,"Flint knife,Jet necklace",,,,,,,N/a,2200,1800,2000,1860,23
Blawearie cairn 1 cist C (Gw cist 4),Northumberland,NU08172229,408170,622290,55.494336,-1.8722454,"55.494336,-1.8722454",Crouched burial,N/a,N/a,N/a,,,,,,,,N/a,2300,1750,2025,1860,24
Blawearie cairn 1 cist D,Northumberland,NU08172229,408170,622290,55.494336,-1.8722454,"55.494336,-1.8722454",Crouched burial,N/a,N/a,N/a,,,,,,,,N/a,2300,1750,2025,1980,25
Blawearie cairn 1 cist E,Northumberland,NU08172229,408170,622290,55.494336,-1.8722454,"55.494336,-1.8722454",Multiple cremation,2,Indet.,Multiple age groups,Flint flakes,,,,Indet.,,Flint flakes,Indet.,2100,1750,1925,1980,26
Blawearie satellite cairn 1 pit,Northumberland,NU0822,408000,622000,55.491733,-1.8749443,"55.491733,-1.8749443",Unclear,N/a,Indet.,Indet.,,,,,,,,Indet.,2000,,2000,1980,27
Bluebell Inn cist,Northumberland,NU215315,421500,631500,55.576688,-1.6605574,"55.576688,-1.6605574",Crouched burial,1,Indet.,Child,Beaker,Indet.,Child,Beaker,,,,Indet.,2300,2100,2200,1860,28
Bowchester cist,Northumberland,NT9728,397000,628000,55.545699,-2.0491018,"55.545699,-2.0491018",Crouched burial,1,Possible Male,Adult,Bronze dagger,Possible Male,Adult,Bronze dagger,,,,,2200,1750,1975,1930,29
Bowsden West Farm cist,Northumberland,NT984414,398400,641400,55.666108,-2.0269979,"55.666108,-2.0269979",Crouched burial,N/a,N/a,N/a,Food Vessel,,,,,,,N/a,2150,1750,1950,1960,30
Brandon cist/barrow,County Durham,NZ20724003,420720,540030,54.754794,-1.6795822,"54.754794,-1.6795822",Crouched burial,1,N/a,N/a,Beaker,N/a,N/a,Beaker,,,,N/a,2300,2100,2200,1900,31
Broomhill cist,Northumberland,NZ076606,407600,560600,54.940010,-1.8829023,"54.940010,-1.8829023",Cremation,1,Indet.,Child,Food Vessel,Indet.,Child,Food Vessel,,,,Indet.,2150,1750,1950,1970,32
Broomhill kerbed cairn cist 1,Northumberland,NT965370,396500,637000,55.626563,-2.0571437,"55.626563,-2.0571437",Crouched burial,1,Indet.,Child,Food Vessel,Indet.,Child,Food Vessel,,,,Indet.,2150,1750,1950,1850,33
Broomhill kerbed cairn cremation deposit 1,Northumberland,NT965370,396500,637000,55.626563,-2.0571437,"55.626563,-2.0571437",Cremation,1,Indet.,Adolescent,"Collared urn,Flint flakes,Bone pin",Indet.,Adolescent,"Collared urn, Flint flakes, Bone pin",,,,Indet.,2000,1500,1750,1850,34
Broomhill kerbed cairn cremation deposit 2,Northumberland,NT965370,396500,637000,55.626563,-2.0571437,"55.626563,-2.0571437",Cremation,N/a,N/a,N/a,"Cinerary urn,Flint knife",,,,,,,N/a,2000,1500,1750,1850,35
Broomhill kerbed cairn cremation deposit 3,Northumberland,NT965370,396500,637000,55.626563,-2.0571437,"55.626563,-2.0571437",Cremation,N/a,N/a,N/a,Urn,,,,,,,N/a,2000,1500,1750,1850,36
Broomhill kerbed cairn cremation deposit 4,Northumberland,NT965370,396500,637000,55.626563,-2.0571437,"55.626563,-2.0571437",Cremation,N/a,N/a,N/a,Urn,,,,,,,N/a,2000,1500,1750,1850,37
Broomhill kerbed cairn cremation deposit 5,Northumberland,NT965370,396500,637000,55.626563,-2.0571437,"55.626563,-2.0571437",Cremation,N/a,N/a,N/a,Urn,,,,,,,N/a,2000,1500,1750,1850,38
Broomhill kerbed cairn cremation deposit 6,Northumberland,NT965370,396500,637000,55.626563,-2.0571437,"55.626563,-2.0571437",Cremation,N/a,N/a,N/a,Urn,,,,,,,N/a,2000,1500,1750,1850,39
Broomhill kerbed cairn cremation deposit 7,Northumberland,NT965370,396500,637000,55.626563,-2.0571437,"55.626563,-2.0571437",Cremation,N/a,N/a,N/a,Urn,,,,,,,N/a,2000,1500,1750,1850,40
Broomhouses cist 1,Northumberland,NZ099655,409900,565500,54.984002,-1.8468347,"54.984002,-1.8468347",Crouched burial,N/a,N/a,N/a,,,,,,,,N/a,2300,1750,2025,1877,41
Broomhouses cist 2,Northumberland,NZ099655,409900,565500,54.984002,-1.8468347,"54.984002,-1.8468347",Crouched burial,N/a,N/a,N/a,,,,,,,,N/a,2300,1750,2025,1877,42
Broomhouses cist 3,Northumberland,NZ099655,409900,565500,54.984002,-1.8468347,"54.984002,-1.8468347",Cremation,1,Indet.,Adolescent,,Indet.,Adolescent,,,,,Indet.,2300,1750,2025,1877,43
Broomhouses cist 4,Northumberland,NZ099655,409900,565500,54.984002,-1.8468347,"54.984002,-1.8468347",Cremation,1,Indet.,Adult,,Indet.,Adult,,,,,Indet.,2300,1750,2025,1877,44
Broomhouses pit 1,Northumberland,NZ099655,409900,565500,54.984002,-1.8468347,"54.984002,-1.8468347",Cremation,1,Indet.,Adult,"Food Vessel,Flint knife",Indet.,Adult,"Food Vessel, Flint knife",,,,Indet.,2000,1700,1850,1877,45
Broomhouses pit 2,Northumberland,NZ099655,409900,565500,54.984002,-1.8468347,"54.984002,-1.8468347",Cremation,1,Indet.,Adult,Urn,Indet.,Adult,Urn,,,,Indet.,2000,1700,1850,1877,46
Broomridge 2 cremation deposit ,Northumberland,NT9437,394000,637000,55.626538,-2.0968453,"55.626538,-2.0968453",Cremation,N/a,N/a,N/a,Collared urn,,,,,,,N/a,2000,1500,1750,1850,47
Broomridge 2a cremation deposit,Northumberland,NT9437,394000,637000,55.626538,-2.0968453,"55.626538,-2.0968453",Cremation,N/a,N/a,N/a,Accessory Vessel,,,,,,,N/a,2000,1500,1750,1850,48
Burgh Hill cairn 1 cist,Northumberland,NU023005,402300,600500,55.298602,-1.9653228,"55.298602,-1.9653228",Crouched burial,N/a,N/a,N/a,,,,,,,,N/a,2300,1750,2025,1877,49
Burgh Hill cairn 2 cist,Northumberland,NU0200,402000,600000,55.294110,-1.9700509,"55.294110,-1.9700509",Crouched burial,N/a,N/a,N/a,Pottery,,,,,,,N/a,2300,1750,2025,1877,50
Carham cist,Northumberland,NT821357,382100,635700,55.614562,-2.2857381,"55.614562,-2.2857381",Uncremated remains,N/a,N/a,N/a,Food Vessel,,,,,,,N/a,2150,1750,1950,,51
Cartington chamber,Northumberland,NU0305,403000,605000,55.339034,-1.9542519,"55.339034,-1.9542519",Crouched burial,1,Indet.,Indet.,"Beaker,Flint scraper,Stiched hide",Indet.,Indet.,"Beaker, Flint scraper, Stiched hide",,,,Indet.,2340,2060,2200,1910,52
Catcherside cairn cremation 2,Northumberland,NY992877,399200,587700,55.183587,-2.0141044,"55.183587,-2.0141044",Cremation,Indet.,Indet.,Indet.,Urn,,,,,,,Indet.,2000,1500,1750,1877,53
Catcherside cairn pit 1,Northumberland,NY992877,399200,587700,55.183587,-2.0141044,"55.183587,-2.0141044",Cremation,Indet.,Indet.,Indet.,Urn,,,,,,,Indet.,2000,1700,1850,1877,54
Chatton barrow 1 cist,Northumberland,NU0228,402000,628000,55.545705,-1.9698616,"55.545705,-1.9698616",Crouched burial,N/a,N/a,N/a,,,,,,,,N/a,2300,1750,2025,1877,55
Chatton barrow 2 cist,Northumberland,NU0228,402000,628000,55.545705,-1.9698616,"55.545705,-1.9698616",Cremation,N/a,Indet.,Indet.,,,,,,,,Indet.,2100,1750,1925,1877,56
Chatton barrow 3 cist,Northumberland,NU0228,402000,628000,55.545705,-1.9698616,"55.545705,-1.9698616",Cremation,1,Indet.,Adult,Flint flakes,Indet.,Adult,Flint flakes,,,,Indet.,2100,1750,1925,1877,57
Chatton Sandyford cairn 1 cremation deposit 1,Northumberland,NU10032669,410035,626693,55.533864,-1.8425698,"55.533864,-1.8425698",Cremation,Indet.,Indet.,Indet.,Food Vessel,,,,,,,Indet.,2000,1700,1850,1960,58
Chatton Sandyford cairn 1 cremation deposit 2,Northumberland,NU10032669,410000,626000,55.527638,-1.8431491,"55.527638,-1.8431491",Cremation,Indet.,Indet.,Indet.,,,,,,,,Indet.,2000,1500,1750,1960,59
Chatton Sandyford cairn 1 grave 1,Northumberland,NU10032669,410000,626000,55.527638,-1.8431491,"55.527638,-1.8431491",Uncremated remains,N/a,N/a,N/a,Beaker,,,,,,,N/a,2100,1900,2000,1960,60
Chatton Sandyford cairn 1 grave 2,Northumberland,NU10032669,410000,626000,55.527638,-1.8431491,"55.527638,-1.8431491",Uncremated remains,N/a,N/a,N/a,Beaker,,,,,,,N/a,2100,1900,2000,1960,61
Chatton Sandyford cairn 1 grave 3,Northumberland,NU10032669,410000,626000,55.527638,-1.8431491,"55.527638,-1.8431491",Uncremated remains,N/a,N/a,N/a,Beaker,,,,,,,N/a,2100,1900,2000,1960,62
Cheswick cist,Northumberland,NU0346,403000,646000,55.707434,-1.9538249,"55.707434,-1.9538249",Uncremated remains,1,Indet.,Indet.,Bronze dagger,Indet.,Indet.,Bronze dagger,,,,Indet.,2150,1900,2025,1830,63
Cheviot Walk Wood cist 1,Northumberland,NU10161960,410160,619600,55.470128,-1.8408463,"55.470128,-1.8408463",Uncremated remains,Indet.,Indet.,Indet.,Food Vessel,,,,,,,Indet.,2150,1750,1950,1980,64
Cheviot Walk Wood deposit 2,Northumberland,NU10161960,410160,619600,55.470128,-1.8408463,"55.470128,-1.8408463",Cremation,1,Indet.,Adolescent,Food Vessel,Indet.,Adolescent,Food Vessel,,,,Indet.,2150,1750,1950,1980,65
Cheviot Walk Wood deposit 3,Northumberland,NU10161960,410160,619600,55.470128,-1.8408463,"55.470128,-1.8408463",Cremation,1,Indet.,Adult,Flint flakes,Indet.,Adult,Flint flakes,,,,Indet.,2150,1750,1950,1980,66
Cheviot Walk Wood deposit 4,Northumberland,NU10161960,410160,619600,55.470128,-1.8408463,"55.470128,-1.8408463",Multiple cremation,2,Indet.,Multiple age groups,Food Vessel,,,,Indet.,Adult + Juvenile,Food Vessel,Indet.,2150,1750,1950,1980,67
Cheviot Walk Wood deposit 5,Northumberland,NU10161960,410160,619600,55.470128,-1.8408463,"55.470128,-1.8408463",Multiple cremation,2,Indet.,Multiple age groups,Flint knife,,,,Indet.,Adult + Juvenile,Flint knife,Indet.,2150,1750,1950,1980,68
Cheviot Walk Wood deposit 6,Northumberland,NU10161960,410160,619600,55.470128,-1.8408463,"55.470128,-1.8408463",Cremation,1,Indet.,Child,"Food Vessel,Flint arrowhead",Indet.,Child,"Food Vessel, Flint arrowhead",,,,Indet.,2150,1750,1950,1980,69
Cheviot Walk Wood deposit 7,Northumberland,NU10161960,410160,619600,55.470128,-1.8408463,"55.470128,-1.8408463",Cremation,1,Indet.,Adult,Food Vessel,Indet.,Adult,Food Vessel,,,,Indet.,2150,1750,1950,1980,70
Chollerton cist,Northumberland,NY9572,395000,572000,55.042482,-2.0797786,"55.042482,-2.0797786",Crouched burial,1,Indet.,Adult,,Indet.,Adult,,,,,Indet.,2300,1750,2025,1840,71
Chollerton cremation deposit 1,Northumberland,NY9572,395000,572000,55.042482,-2.0797786,"55.042482,-2.0797786",Cremation,1,Indet.,Adult,,Indet.,Adult,,,,,Indet.,2000,1500,1750,1840,72
Chollerton cremation deposit 2,Northumberland,NY9572,395000,572000,55.042482,-2.0797786,"55.042482,-2.0797786",Cremation,1,Indet.,Adolescent,Urn,Indet.,Adolescent,Urn,,,,Indet.,2000,1500,1750,1840,73
Clara Vale cist (Ryton),Tyne and Wear,NZ13026462,413020,564620,54.976023,-1.7981215,"54.976023,-1.7981215",Crouched burial,1,Possible Male,Adult,Beaker,Possible Male,Adult,Beaker,,,,,2200,1950,2075,1910,74
Coldsmouth Hill north cairn cist,Northumberland,NT85732826,385730,628260,55.547833,-2.2277217,"55.547833,-2.2277217",Cremation,Indet.,Indet.,Indet.,Flint knife,,,,,,,Indet.,2150,1750,1950,1920,75
Coldsmouth Hill south cairn grave 1,Northumberland,NT85702817,385700,628170,55.547023,-2.2281925,"55.547023,-2.2281925",Cremation,1,Possible Female,Adult,Flint scraper,Possible Female,Adult,Flint scraper,,,,,2150,1750,1950,1920,76
Coldsmouth Hill south cairn grave 2,Northumberland,NT85702817,385700,628170,55.547023,-2.2281925,"55.547023,-2.2281925",Uncremated remains,N/a,N/a,N/a,,,,,,,,N/a,2150,1750,1950,1920,77
Copt Hill cist 1,County Durham,NZ35344922,435340,549220,54.836563,-1.4513144,"54.836563,-1.4513144",Crouched burial,1,Indet.,Child,,Indet.,Child,,,,,Indet.,2300,1750,2025,1870,78
Copt Hill cist 2,County Durham,NZ35344922,435340,549220,54.836563,-1.4513144,"54.836563,-1.4513144",N/a,1,N/a,N/a,,N/a,N/a,,,,,N/a,,,,1870,79
Copt Hill cremation deposit 1,County Durham,NZ35344922,435340,549220,54.836563,-1.4513144,"54.836563,-1.4513144",Cremation,N/a,Indet.,Indet.,Flint flakes,,,,,,,Indet.,2000,,2000,1870,80
Copt Hill cremation deposit 2,County Durham,NZ35344922,435340,549220,54.836563,-1.4513144,"54.836563,-1.4513144",Cremation,1,Indet.,Indet.,,Indet.,Indet.,,,,,Indet.,2000,,2000,1870,81
Copt Hill cremation deposit 3,County Durham,NZ35344922,435340,549220,54.836563,-1.4513144,"54.836563,-1.4513144",Cremation,1,Indet.,Indet.,,Indet.,Indet.,,,,,Indet.,2000,,2000,1870,82
Copt Hill grave 1,County Durham,NZ35344922,435340,549220,54.836563,-1.4513144,"54.836563,-1.4513144",Uncremated remains,1,Indet.,Indet.,Flint scraper,Indet.,Indet.,Flint scraper,,,,Indet.,2150,1700,1925,1870,83
Copt Hill grave 1,County Durham,NZ35344922,435340,549220,54.836563,-1.4513144,"54.836563,-1.4513144",Crouched burial,1,Indet.,Indet.,,Indet.,Indet.,,,,,Indet.,2150,1700,1925,1870,84
Copt Hill grave 2,County Durham,NZ35344922,435340,549220,54.836563,-1.4513144,"54.836563,-1.4513144",Crouched burial,1,Possible Male,Adult,,Possible Male,Adult,,,,,,2150,1700,1925,1870,85
Copt Hill grave 3,County Durham,NZ35344922,435340,549220,54.836563,-1.4513144,"54.836563,-1.4513144",Crouched burial,1,Indet.,Indet.,Food Vessel,Indet.,Indet.,Food Vessel,,,,Indet.,2150,1700,1925,1870,86
Copt Hill urned cremation deposit,County Durham,NZ35344922,435340,549220,54.836563,-1.4513144,"54.836563,-1.4513144",Cremation,N/a,Indet.,Indet.,Food Vessel,,,,,,,Indet.,2000,1700,1850,1870,87
Corby's Crags rock shelter feature 1,Northumberland,NU12800965,412800,609650,55.380661,-1.7995406,"55.380661,-1.7995406",Cremation,Indet.,Indet.,Indet.,Food Vessel,,,,,,,Indet.,2000,1700,1850,1970,88
Crag Hall cist 1,Northumberland,NZ2567,425000,567000,54.996956,-1.6107558,"54.996956,-1.6107558",Cremation,Indet.,Indet.,Indet.,Urn,,,,,,,Indet.,2150,1750,1950,1840,89
Crag Hall cist 1,Northumberland,NZ2567,425000,567000,54.996956,-1.6107558,"54.996956,-1.6107558",Cremation,Indet.,Indet.,Indet.,Urn,,,,,,,Indet.,2150,1750,1950,1840,90
Crag Hall cist 2,Northumberland,NZ2567,425000,567000,54.996956,-1.6107558,"54.996956,-1.6107558",Cremation,Indet.,Indet.,Indet.,Urn,,,,,,,Indet.,2150,1750,1950,1840,91
Crag Hall cist 2,Northumberland,NZ2567,425000,567000,54.996956,-1.6107558,"54.996956,-1.6107558",Cremation,Indet.,Indet.,Indet.,Urn,,,,,,,Indet.,2150,1750,1950,1840,92
Crawley Edge cremation deposit,County Durham,NZ00093979,400090,539790,54.753059,-2.0001237,"54.753059,-2.0001237",Cremation,Indet.,Indet.,Indet.,"Collared urn,Lead ore",,,,,,,Indet.,2000,1550,1775,1970,93
Debdon Farm cairn 1 cist 1,Northumberland,NU0504 ,405000,604000,55.330032,-1.9227385,"55.330032,-1.9227385",Uncremated remains,1,Indet.,Adult,,Indet.,Adult,,,,,Indet.,2300,1750,2025,1877,94
Debdon Farm cairn 1 cremation deposit,Northumberland,NU0504 ,405000,604000,55.330032,-1.9227385,"55.330032,-1.9227385",Cremation,1,Indet.,Adult,,Indet.,Adult,,,,,Indet.,2000,,2000,1877,95
Debdon Farm cairn 2 pit,Northumberland,NU0504 ,405000,604000,55.330032,-1.9227385,"55.330032,-1.9227385",Cremation,1,Indet.,Adult,,Indet.,Adult,,,,,Indet.,2000,,2000,1877,96
Denton cist,Northumberland,NZ1965,419000,565000,54.979247,-1.7046725,"54.979247,-1.7046725",Uncremated remains,N/a,N/a,N/a,Food Vessel,,,,,,,N/a,2150,1750,1950,1822,97
Dilston Park cist A,Northumberland,NY9663,396000,563000,54.961616,-2.0640005,"54.961616,-2.0640005",Inhumation and Cremation,N/a,N/a,Adult,Beaker,,,,,,,N/a,2300,2100,2200,1900,98
Dilston Park cist B,Northumberland,NY9663,396000,563000,54.961616,-2.0640005,"54.961616,-2.0640005",Uncremated remains,N/a,N/a,N/a,Beaker,,,,,,,N/a,2300,2100,2200,1900,99
Doddington cist,Northumberland,NU005310,400500,631000,55.572664,-1.9936295,"55.572664,-1.9936295",Crouched burial,1,Possible Male,Adult,"Food Vessel,Flint knife,Stitched hide,Flint flakes",Possible Male,Adult,"Food Vessel, Flint knife, Stitched hide, Flint flakes",,,,,2150,1750,1950,1860,100
Dour Hill cist,Northumberland,NT794021,379400,602100,55.312548,-2.3260991,"55.312548,-2.3260991",Uncremated remains,1,Indet.,Child,Food Vessel,Indet.,Child,Food Vessel,,,,Indet.,2150,1950,2050,1970,101
Dour Hill cist,Northumberland,NT794021,379400,602100,55.312548,-2.3260991,"55.312548,-2.3260991",Uncremated remains,1,Indet.,Child,Food Vessel,Indet.,Child,Food Vessel,,,,Indet.,2150,1750,1950,1970,102
Elsnook cist,Northumberland,NU183187,418300,618700,55.461806,-1.7121504,"55.461806,-1.7121504",Uncremated remains,N/a,N/a,N/a,Beaker,,,,,,,N/a,2200,2000,2100,1920,103
Etal Moor barrow Beaker find,Northumberland,NT9640,396000,640000,55.653514,-2.0651289,"55.653514,-2.0651289",N/a,N/a,N/a,N/a,Beaker,,,,,,,N/a,2200,1850,2025,1860,104
Etal Moor barrow cist (Kinnes and Longworth burial 5),Northumberland,NT9640,396000,640000,55.653514,-2.0651289,"55.653514,-2.0651289",Cremation,1,N/a,Adult,,N/a,Adult,,,,,N/a,2100,1750,1925,1860,105
Etal Moor barrow cremation deposit ,Northumberland,NT9640,396000,640000,55.653514,-2.0651289,"55.653514,-2.0651289",Cremation,N/a,N/a,N/a,Urn,,,,,,,N/a,2000,1500,1750,1860,106
Etal Moor barrow cremation pit,Northumberland,NT9640,396000,640000,55.653514,-2.0651289,"55.653514,-2.0651289",Cremation,1,N/a,Adult,"Collared urn,Accessory Vessel",N/a,Adult,"Collared urn, Accessory Vessel",,,,N/a,2000,1550,1775,1860,107
Etal Moor barrow cremation pit,Northumberland,NT9640,396000,640000,55.653514,-2.0651289,"55.653514,-2.0651289",Cremation,1,N/a,Adult,"Collared urn,Bronze awl,Bone pin",N/a,Adult,"Collared urn, Bronze awl, Bone pin",,,,N/a,2000,1550,1775,1860,108
Farnham cist ,Northumberland,NT9206,392000,606000,55.347961,-2.1277005,"55.347961,-2.1277005",Crouched burial,N/a,N/a,N/a,Beaker,,,,,,,N/a,2200,2000,2100,,109
Farnham cremation,Northumberland,NT9206,392000,606000,55.347961,-2.1277005,"55.347961,-2.1277005",Cremation,N/a,N/a,N/a,Food Vessel,,,,,,,N/a,2000,1700,1850,,110
Fatfield barrow cist 1,Tyne and Wear,NZ30755372,430750,553720,54.877302,-1.5222961,"54.877302,-1.5222961",Crouched burial,1,N/a,Adult,,N/a,Adult,,,,,N/a,2300,1750,2025,1900,111
Fatfield barrow cist 2,Tyne and Wear,NZ30755372,430750,553720,54.877302,-1.5222961,"54.877302,-1.5222961",Crouched burial,1,N/a,Adult,Food Vessel,N/a,Adult,Food Vessel,,,,N/a,2150,1750,1950,1900,112
Fatfield barrow cist 3,Tyne and Wear,NZ30755372,430750,553720,54.877302,-1.5222961,"54.877302,-1.5222961",Crouched burial,1,Possible Male,Adult,,Possible Male,Adult,,,,,,2300,1750,2025,1900,113
Fawns barrow cremation deposit 1,Northumberland,NZ007853,400700,585300,55.162022,-1.9905533,"55.162022,-1.9905533",Cremation,1,Indet.,Adult,Flint flakes,Indet.,Adult,Flint flakes,,,,Indet.,2000,,2000,1877,114
Fawns barrow cremation deposit 2,Northumberland,NZ007853,400700,585300,55.162022,-1.9905533,"55.162022,-1.9905533",Cremation,1,Indet.,Child,Food Vessel,Indet.,Child,Food Vessel,,,,Indet.,2000,1700,1850,1877,115
Fawns barrow cremation deposit 3,Northumberland,NZ007853,400700,585300,55.162022,-1.9905533,"55.162022,-1.9905533",Cremation,1,Indet.,Indet.,Urn,Indet.,Indet.,Urn,,,,Indet.,2000,,2000,1877,116
Ford barrow cremation deposit 1,Northumberland,NT9538,395000,638000,55.635534,-2.0809832,"55.635534,-2.0809832",Cremation,N/a,Indet.,Indet.,,,,,,,,Indet.,2000,,2000,1860,117
Ford barrow cremation deposit 2,Northumberland,NT9538,395000,638000,55.635534,-2.0809832,"55.635534,-2.0809832",Cremation,N/a,Indet.,Indet.,,,,,,,,Indet.,2000,,2000,1860,118
Ford barrow cremation deposit 3,Northumberland,NT9538,395000,638000,55.635534,-2.0809832,"55.635534,-2.0809832",Cremation,1,Possible Female,Adult,"Collared urn,Flint flakes,Jet beads",Possible Female,Adult,"Collared urn, Flint flakes, Jet beads",,,,,2000,1800,1900,1860,119
Gains Law ring cairn cist 1,Northumberland,NT956282,395600,628200,55.547485,-2.0712923,"55.547485,-2.0712923",Inhumation and Cremation,N/a,N/a,N/a,Food Vessel,,,,,,,N/a,2150,1750,1950,1980,120
Gains Law ring cairn cist 2,Northumberland,NT956282,395600,628200,55.547485,-2.0712923,"55.547485,-2.0712923",Uncremated remains,1,Indet.,Indet.,Food Vessel,Indet.,Indet.,Food Vessel,,,,Indet.,2150,1700,1925,1980,121
Goatscrag site A C1,Northumberland,NT977371,397700,637100,55.627469,-2.0380878,"55.627469,-2.0380878",Cremation,1,Possible Male,Adolescent,Urn,Possible Male,Adolescent,Urn,,,,,2000,1700,1850,1960,122
Goatscrag site A C2,Northumberland,NT977371,397700,637100,55.627469,-2.0380878,"55.627469,-2.0380878",Multiple cremation,2,Multiple,Multiple age groups,Urn,,,,Female + Indet.,Adult + Juvenile,Urn,,2000,1700,1850,1960,123
Goatscrag site A C3,Northumberland,NT977371,397700,637100,55.627469,-2.0380878,"55.627469,-2.0380878",Cremation,1,Indet.,Adolescent,Jet bead,Indet.,Adolescent,Jet bead,,,,Indet.,2000,,2000,1960,124
Goatscrag site A C4,Northumberland,NT977371,397700,637100,55.627469,-2.0380878,"55.627469,-2.0380878",Cremation,1,Indet.,Adolescent,Flint flakes,Indet.,Adolescent,Flint flakes,,,,Indet.,2000,,2000,1960,125
Great Tosson cist 1,Northumberland,NU030005,403000,600500,55.298598,-1.9542982,"55.298598,-1.9542982",Crouched burial,1,Possible Female,Adult,"Food Vessel,Jet button",Possible Female,Adult,"Food Vessel, Jet button",,,,,2150,1750,1950,1890,126
Great Tosson cist 2,Northumberland,NU030005,403000,600500,55.298598,-1.9542982,"55.298598,-1.9542982",Crouched burial,1,Indet.,Adult,"Food Vessel,Jet button,Antler pick",Indet.,Adult,"Food Vessel, Jet button, Antler pick",,,,Indet.,2000,1700,1850,1890,127
Green Leighton barrow deposit 1,Northumberland,NZ0986,409000,586000,55.168232,-1.8602587,"55.168232,-1.8602587",Uncremated remains,N/a,N/a,N/a,Food Vessel,,,,,,,N/a,2000,1700,1850,1877,128
Green Leighton barrow deposit 2,Northumberland,NZ0986,409000,586000,55.168232,-1.8602587,"55.168232,-1.8602587",Uncremated remains,N/a,N/a,N/a,,,,,,,,N/a,2300,1500,1900,1877,129
Greenhill cist,Northumberland,NU0222,402000,622000,55.491793,-1.9699025,"55.491793,-1.9699025",Uncremated remains,N/a,N/a,N/a,Food Vessel,,,,,,,N/a,2150,1750,1950,1870,130
Grundstone Law cist,Northumberland,NZ004734,400400,573400,55.055089,-1.9952739,"55.055089,-1.9952739",Crouched burial,2,Multiple,Adult,,,,,Male + Possible Male,Adult,,,2300,1750,2025,1860,131
Grundstone Law deposit 1,Northumberland,NZ004734,400400,573400,55.055089,-1.9952739,"55.055089,-1.9952739",Uncremated remains,1,N/a,N/a,,N/a,N/a,,,,,N/a,2300,1750,2025,1860,132
Gunnerton cist,Northumberland,NY905750,390500,575000,55.069373,-2.1502990,"55.069373,-2.1502990",Uncremated remains,1,N/a,N/a,Bone pin,N/a,N/a,Bone pin,,,,N/a,2300,1750,2025,,133
Harbottle Peels cairn (Gw202) cist 1,Northumberland,NT9404,394000,604000,55.330018,-2.0961190,"55.330018,-2.0961190",Uncremated remains,N/a,N/a,N/a,Food Vessel,,,,,,,N/a,2300,1750,2025,1877,134
Harbottle Peels cairn (Gw202) cist 2,Northumberland,NT9404,394000,604000,55.330018,-2.0961190,"55.330018,-2.0961190",Uncremated remains,N/a,N/a,N/a,Food Vessel,,,,,,,N/a,2150,1750,1950,1877,135
Harbottle Peels cairn (Gw202) cist 3,Northumberland,NT9404,394000,604000,55.330018,-2.0961190,"55.330018,-2.0961190",Uncremated remains,N/a,N/a,N/a,Food Vessel,,,,,,,N/a,2150,1750,1950,1877,136
Harbottle Peels cairn (Gw202) cist 4,Northumberland,NT9404,394000,604000,55.330018,-2.0961190,"55.330018,-2.0961190",Uncremated remains,N/a,N/a,N/a,,,,,,,,N/a,2300,1750,2025,1877,137
Harbottle Peels cairn (Gw202) cremation 1,Northumberland,NT9404,394000,604000,55.330018,-2.0961190,"55.330018,-2.0961190",Cremation,1,Indet.,Adult,Urn,Indet.,Adult,Urn,,,,Indet.,2000,,2000,1877,138
Harbottle Peels cairn (Gw202) cremation 2,Northumberland,NT9404,394000,604000,55.330018,-2.0961190,"55.330018,-2.0961190",Cremation,1,Indet.,Child,,Indet.,Child,,,,,Indet.,2000,,2000,1877,139
Harbottle Peels cairn (Gw202) cremation 3,Northumberland,NT9404,394000,604000,55.330018,-2.0961190,"55.330018,-2.0961190",Cremation,1,Possible Male,Adult,,Possible Male,Adult,,,,,,2000,,2000,1877,140
Harbottle Peels cairn (Gw202) possible inhumation placement 2,Northumberland,NT9404,394000,604000,55.330018,-2.0961190,"55.330018,-2.0961190",Uncremated remains,N/a,N/a,N/a,Food Vessel,,,,,,,N/a,2150,1750,1950,1877,141
Harbottle Peels cairn (Gw202) probable inhumation placement 1,Northumberland,NT9404,394000,604000,55.330018,-2.0961190,"55.330018,-2.0961190",Uncremated remains,N/a,N/a,N/a,Food Vessel,,,,,,,N/a,2150,1750,1950,1877,142
Harehope Hill cist,Northumberland,NU0820,408000,620000,55.473762,-1.8750011,"55.473762,-1.8750011",Uncremated remains,N/a,N/a,N/a,"Food Vessel,Flint knife",,,,,,,N/a,2000,1750,1875,1860,143
Hasting Hill cist 1 (Trechmann find 9),Tyne and Wear,NZ35275435,435270,554350,54.882666,-1.4517795,"54.882666,-1.4517795",Crouched burial,1,Male,Adult,"Beaker,Flint knife,Antler pick,Bone pin",Male,Adult,"Beaker, Flint knife, Antler pick, Bone pin",,,,,2200,2000,2100,1910,144
Hasting Hill cist 1 (Trechmann find 9),Tyne and Wear,NZ35275435,435270,554350,54.882666,-1.4517795,"54.882666,-1.4517795",Inhumation and Cremation,2,Indet.,Multiple age groups,"Beaker,Flint knife,Antler pick,Bone pin",,,,Indet.,Adult + Juvenile,"Beaker, Flint knife, Antler pick, Bone pin",Indet.,2200,2000,2100,1910,145
Hasting Hill cist 2 (Trechmann Find 10),Tyne and Wear,NZ35275435,435270,554350,54.882666,-1.4517795,"54.882666,-1.4517795",Crouched burial,1,Male,Senior,"Food Vessel,Flint flakes",Male,Senior,"Food Vessel, Flint flakes",,,,,2150,1750,1950,1910,146
Hasting Hill cist 3 (Trechmann Find 12),Tyne and Wear,NZ35275435,435270,554350,54.882666,-1.4517795,"54.882666,-1.4517795",Crouched burial,1,Indet.,Child,"Food Vessel,Flint flakes,Animal tooth",Indet.,Child,"Food Vessel, Flint flakes, Animal tooth",,,,Indet.,1950,1750,1850,1910,147
Hasting Hill cist 4 (Trechmann Find 1),Tyne and Wear,NZ35275435,435270,554350,54.882666,-1.4517795,"54.882666,-1.4517795",Cremation,N/a,Indet.,Indet.,"Food Vessel,Accessory Vessel,Flint flakes",,,,,,,Indet.,2150,1750,1950,1910,148
Hasting Hill grave 1 (Trechmann find 11),Tyne and Wear,NZ35275435,435270,554350,54.882666,-1.4517795,"54.882666,-1.4517795",Crouched burial,1,Female,Adult,,Female,Adult,,,,,,2200,1900,2050,1910,149
Hasting Hill square cist 1 (Trechmann 1914 Find 8),Tyne and Wear,NZ35275435,435270,554350,54.882666,-1.4517795,"54.882666,-1.4517795",Cremation,N/a,Indet.,Indet.,,,,,,,,Indet.,2100,1700,1900,1910,150
Hasting Hill square cist 2 (Trechmann Find 5),Tyne and Wear,NZ35275435,435270,554350,54.882666,-1.4517795,"54.882666,-1.4517795",Cremation,N/a,Indet.,Indet.,Animal tooth,,,,,,,Indet.,2100,1700,1900,1910,151
Hasting Hill stone-lined pit (Trechmann find 6),Tyne and Wear,NZ35275435,435270,554350,54.882666,-1.4517795,"54.882666,-1.4517795",Cremation,N/a,Indet.,Indet.,Food Vessel,,,,,,,Indet.,2000,1700,1850,1910,152
Hasting Hill unurned cremation deposit 1 (Trechmann find 2),Tyne and Wear,NZ35275435,435270,554350,54.882666,-1.4517795,"54.882666,-1.4517795",Cremation,N/a,Indet.,Indet.,Food Vessel,,,,,,,Indet.,2000,1700,1850,1910,153
Hasting Hill unurned cremation deposit 2 (Trechmann find 3),Tyne and Wear,NZ35275435,435270,554350,54.882666,-1.4517795,"54.882666,-1.4517795",Cremation,N/a,Indet.,Indet.,,,,,,,,Indet.,2000,,2000,1910,154
Haugh Head cist,Northumberland,NU0026,400000,626000,55.527738,-2.0015569,"55.527738,-2.0015569",Inhumation and Cremation,Indet.,Indet.,Indet.,"Food Vessel,Flint arrowhead,Flint flakes",,,,,,,Indet.,2150,1750,1950,1940,155
Hedley Wood cist,Northumberland,NT985006,398500,600600,55.299502,-2.0251711,"55.299502,-2.0251711",Unclear,N/a,N/a,N/a,"Food Vessel,Flint flakes",,,,,,,N/a,2000,1750,1875,,156
Hepple round cairn cremation deposit,Northumberland,NT980000,398000,600000,55.294109,-2.0330414,"55.294109,-2.0330414",Cremation,N/a,N/a,N/a,Jet bead,,,,,,,N/a,2200,1600,1900,,157
Hexham Golf Course cist,Northumberland,NY922649,392200,564900,54.978644,-2.1233986,"54.978644,-2.1233986",Uncremated remains,1,Indet.,Adult,,Indet.,Adult,,,,,Indet.,2300,1750,2025,1920,158
High Buston cist,Northumberland,NU2308,423000,608000,55.365466,-1.6387020,"55.365466,-1.6387020",Uncremated remains,2,Multiple,Adult,Beaker,,,,Male + Indet.,Adult,Beaker,,2300,2100,2200,1900,159
High Knowes cairnfield A cairn 2,Northumberland,NT967121,396720,612130,55.403098,-2.0533454,"55.403098,-2.0533454",Uncremated remains,N/a,N/a,N/a,"Beaker,Flint scraper,Flint arrowhead",,,,,,,N/a,2450,2200,2325,1960,160
High Knowes cairnfield B ring ditch pit 1,Northumberland,NT967121,396720,612130,55.403098,-2.0533454,"55.403098,-2.0533454",Cremation,Indet.,Indet.,Indet.,,,,,,,,Indet.,,,,1960,161
High Knowes cairnfield B ring ditch pit 2,Northumberland,NT967121,396720,612130,55.403098,-2.0533454,"55.403098,-2.0533454",Cremation,Indet.,Indet.,Indet.,,,,,,,,Indet.,,,,1960,162
High Knowes henge ('burial 3'),Northumberland,NT967121,396720,612130,55.403098,-2.0533454,"55.403098,-2.0533454",N/a,N/a,N/a,N/a,"Flint scraper,Jet cup",,,,,,,N/a,2200,1500,1850,1960,163
Hollybush Field cist,Northumberland,NY894746,389400,574600,55.065756,-2.1675091,"55.065756,-2.1675091",Crouched burial,1,Male,Adult,,Male,Adult,,,,,,2200,2100,2150,1970,164
Holystone Common cairn 1 cist,Northumberland,NT950020,395000,602000,55.312058,-2.0803207,"55.312058,-2.0803207",Cremation,1,Indet.,Indet.,Food Vessel,Indet.,Indet.,Food Vessel,,,,Indet.,2150,1750,1950,1877,165
Holystone Common cairn 1 cremation 1,Northumberland,NT950020,395000,602000,55.312058,-2.0803207,"55.312058,-2.0803207",Cremation,1,Indet.,Adult,,Indet.,Adult,,,,,Indet.,2000,1500,1750,1877,166
Holystone Common cairn 1 cremation 2,Northumberland,NT950020,395000,602000,55.312058,-2.0803207,"55.312058,-2.0803207",Cremation,1,Indet.,Adult,,Indet.,Adult,,,,,Indet.,2000,1500,1750,1877,167
Holystone Common cairn 2 cremation 1,Northumberland,NT961004,396100,600400,55.297691,-2.0629676,"55.297691,-2.0629676",Multiple cremation,3,Multiple,Multiple age groups,"Bone pin,Flint flakes",,,,Possible Female + Indet.,Adult + Juvenile,"Bone pin, Flint flakes",,2000,1500,1750,1877,168
Holystone Common cairn 2 cremation 2,Northumberland,NT961004,396100,600400,55.297691,-2.0629676,"55.297691,-2.0629676",Multiple cremation,2,Indet.,Adult,Flint flakes,,,,Indet.,Adult,Flint flakes,Indet.,2000,1500,1750,1877,169
Holystone Common cairn 2 cremation 3,Northumberland,NT961004,396100,600400,55.297691,-2.0629676,"55.297691,-2.0629676",Cremation,1,Indet.,Adolescent,"Collared urn,Flint flakes,Bone pin",Indet.,Adolescent,"Collared urn, Flint flakes, Bone pin",,,,Indet.,2000,1500,1750,1877,170
Holystone Common cairn 2 cremation 4,Northumberland,NT961004,396100,600400,55.297691,-2.0629676,"55.297691,-2.0629676",Cremation,1,Indet.,Adult,Food Vessel,Indet.,Adult,Food Vessel,,,,Indet.,2000,1500,1750,1877,171
How Tallon burial 1,County Durham,NZ057074,405700,507400,54.461948,-1.9135784,"54.461948,-1.9135784",Crouched burial,1,Possible Male,Adult,,Possible Male,Adult,,,,,,1750,,1750,1890,172
How Tallon burial 2,County Durham,NZ057074,405700,507400,54.461948,-1.9135784,"54.461948,-1.9135784",Crouched burial,1,Possible Male,Senior,"Food Vessel,Flint knife,Flint arrowhead",Possible Male,Senior,"Food Vessel, Flint knife, Flint arrowhead",,,,,2150,1750,1950,1890,173
How Tallon burial 3,County Durham,NZ057074,405700,507400,54.461948,-1.9135784,"54.461948,-1.9135784",Crouched burial,1,Indet.,Child,"Beaker,Flint flakes",Indet.,Child,"Beaker, Flint flakes",,,,Indet.,2450,1800,2125,1890,174
How Tallon burial 4,County Durham,NZ057074,405700,507400,54.461948,-1.9135784,"54.461948,-1.9135784",Crouched burial,1,Possible Female,Adolescent,,Possible Female,Adolescent,,,,,,1750,,1750,1890,175
How Tallon burial 5,County Durham,NZ057074,405700,507400,54.461948,-1.9135784,"54.461948,-1.9135784",Crouched burial,1,N/a,N/a,Flint scraper,N/a,N/a,Flint scraper,,,,N/a,1750,,1750,1890,176
Howick cist 1,Northumberland,NU25851657,425850,616570,55.442329,-1.5929515,"55.442329,-1.5929515",Uncremated remains,N/a,N/a,N/a,,,,,,,,N/a,2300,1750,2025,2000,177
Howick cist 2,Northumberland,NU25851657,425850,616570,55.442329,-1.5929515,"55.442329,-1.5929515",Uncremated remains,1,Indet.,Child,Pottery,Indet.,Child,Pottery,,,,Indet.,2300,1750,2025,2000,178
Howick cist 3,Northumberland,NU25851657,425850,616570,55.442329,-1.5929515,"55.442329,-1.5929515",Uncremated remains,N/a,N/a,N/a,,,,,,,,N/a,2300,1750,2025,2000,179
Howick cist 4,Northumberland,NU25851657,425850,616570,55.442329,-1.5929515,"55.442329,-1.5929515",Uncremated remains,N/a,N/a,N/a,Flint flakes,,,,,,,N/a,2300,1750,2025,2000,180
Howick cist 5,Northumberland,NU25851657,425850,616570,55.442329,-1.5929515,"55.442329,-1.5929515",Uncremated remains,N/a,N/a,N/a,"Food Vessel,Flint flakes",,,,,,,N/a,2150,1750,1950,2000,181
Howick Heugh ring cairn burial,Northumberland,NU237171,423700,617100,55.447199,-1.6268900,"55.447199,-1.6268900",Uncremated remains,1,Male,Adult,,Male,Adult,,,,,,2450,1750,2100,1970,182
Howick Heugh ring cairn cremation 1,Northumberland,NU237171,423700,617100,55.447199,-1.6268900,"55.447199,-1.6268900",Multiple cremation,2,Multiple,Multiple age groups,"Collared urn,Whetstone",,,"Collared urn, Whetstone",Female + Indet.,Adult + Juvenile,,,1900,1550,1725,1970,183
Howick Heugh ring cairn cremation 2,Northumberland,NU237171,423700,617100,55.447199,-1.6268900,"55.447199,-1.6268900",Cremation,N/a,N/a,N/a,,,,,,,,N/a,2000,,2000,1970,184
Howick Heugh ring cairn cremation 3,Northumberland,NU237171,423700,617100,55.447199,-1.6268900,"55.447199,-1.6268900",Cremation,N/a,N/a,N/a,Flint flakes,,,,,,,N/a,2000,,2000,1970,185
Howick Heugh ring cairn cremation 4,Northumberland,NU237171,423700,617100,55.447199,-1.6268900,"55.447199,-1.6268900",Cremation,N/a,N/a,N/a,,,,,,,,N/a,2000,,2000,1970,186
Humbleton Burn house,Northumberland,Unknown,,,,,,Crouched burial,1,Possible Male,Adult,,Possible Male,Adult,,,,,,2300,1750,2025,1810,187
Huntlaw Quarry cist,Northumberland,Unknown,,,,,,Crouched burial,1,Indet.,Indet.,Beaker,Indet.,Indet.,Beaker,,,,Indet.,2200,2000,2100,1920,188
Jubilee Wood cist,Northumberland,NU0320,403000,602000,55.312077,-1.9542828,"55.312077,-1.9542828",Crouched burial,2,Indet.,Multiple age groups,,,,,Indet.,Adult + Juvenile,,Indet.,2300,1750,2025,1930,189
Kirkhaugh barrow 1 deposit ,Northumberland,NY700504,370000,550400,54.847500,-2.4687243,"54.847500,-2.4687243",Uncremated remains,N/a,N/a,N/a,"Golden jewellery,Flint arrowhead,Flint chisel,Flint flakes,Fragmented stone tools,Iron nodule,Medieval glazed vessel shard,1800 AD mug handle",,,,,,,N/a,2450,2200,2325,1930,190
Kirkhaugh barrow 2 cist,Northumberland,NY700503,370000,550300,54.846601,-2.4687139,"54.846601,-2.4687139",Uncremated remains,N/a,N/a,N/a,,,,,,,,N/a,2300,1750,2025,1930,191
Kirkhill pit A,Northumberland,NT975007,397500,600700,55.300397,-2.0409217,"55.300397,-2.0409217",Multiple cremation,4,Indet.,Multiple age groups,"Collared urn,Flint flakes",,,,Indet.,Adult + Juvenile,"Collared urn, Flint flakes",Indet.,1600,1500,1550,1970,192
Kirkhill pit B,Northumberland,NT975007,397500,600700,55.300397,-2.0409217,"55.300397,-2.0409217",Uncremated remains,N/a,N/a,N/a,,,,,,,,N/a,,,,1970,193
Kirkhill pit C,Northumberland,NT975007,397500,600700,55.300397,-2.0409217,"55.300397,-2.0409217",Crouched burial,1,N/a,N/a,Bronze awl,N/a,N/a,Bronze awl,,,,N/a,2200,1500,1850,1970,194
Kyloe cist,Northumberland,NU0440,404000,640000,55.653516,-1.9379965,"55.653516,-1.9379965",Uncremated remains,N/a,N/a,N/a,"Food Vessel,Plates,Jet beads",,,,,,,N/a,2200,1950,2075,1920,195
Lilburn Hill Farm cist 1,Northumberland,NU020263,402000,626300,55.530430,-1.9698732,"55.530430,-1.9698732",Multiple cremation,Indet.,N/a,N/a,Carved stone ,,,,,,,N/a,2300,1700,2000,1880,196
Lilburn Hill Farm cist 2 (North Cairnfold Field),Northumberland,NU0124,401000,624000,55.509766,-1.9857225,"55.509766,-1.9857225",Unclear,N/a,Indet.,Indet.,Trace of iron,,,,,,,Indet.,2300,1950,2125,1880,197
Lilburn Hill Farm cist 3 (North Cairnfold Field),Northumberland,NU0124,401000,624000,55.509766,-1.9857225,"55.509766,-1.9857225",Unclear,N/a,Indet.,Indet.,,,,,,,,Indet.,2300,1950,2125,1880,198
Lilburn Hill Farm cist 4 (East Cairnfold Field),Northumberland,NU0225,402000,625000,55.518749,-1.9698821,"55.518749,-1.9698821",Unclear,N/a,Indet.,Indet.,Beaker,,,,,,,Indet.,2300,1950,2125,1880,199
Lilburn Hill Farm cist 5 (East Cairnfold Field),Northumberland,NU0226,402000,625000,55.518749,-1.9698821,"55.518749,-1.9698821",Unclear,N/a,Indet.,Indet.,Beaker,,,,,,,Indet.,2300,1950,2125,1880,200
Lilburn Hill Farm cist 6 (East Cairnfold Field),Northumberland,NU0226,402000,625000,55.518749,-1.9698821,"55.518749,-1.9698821",Unclear,N/a,Indet.,Indet.,Beaker,,,,,,,Indet.,2300,1950,2125,1880,201
Lilburn Hill Farm pit 1,Northumberland,NU0124,401000,624000,55.509766,-1.9857225,"55.509766,-1.9857225",Unclear,1,Indet.,Indet.,,Indet.,Indet.,,,,,Indet.,2000,,2000,1880,202
Lilburn Hill Farm stonelined pit 1 (Cairnfold Field),Northumberland,NU0124,401000,624000,55.509766,-1.9857225,"55.509766,-1.9857225",Cremation,N/a,Indet.,Indet.,"Collared urn,Accessory Vessel",,,,,,,Indet.,2000,1500,1750,1880,203
Lilburn Hill Farm stonelined pit 2 (Cairnfold Field),Northumberland,NU0124,401000,624000,55.509766,-1.9857225,"55.509766,-1.9857225",Cremation,N/a,Indet.,Indet.,Urn,,,,,,,Indet.,2000,1500,1750,1880,204
Lilburn South Steads cist,Northumberland,NU0223,402000,623000,55.500778,-1.9698957,"55.500778,-1.9698957",Uncremated remains,1,Female,Senior,"Bronze dagger,Beaker,Flint knife,Jet button",Female,Senior,"Bronze dagger, Beaker, Flint knife, Jet button",,,,,2200,2000,2100,1940,205
Lilburn Tower Farm cist,Northumberland,NU0124,401000,624000,55.509766,-1.9857225,"55.509766,-1.9857225",Cremation,N/a,Indet.,Indet.,Food Vessel,,,,,,,Indet.,2100,1750,1925,1950,206
Lilburn Tower Farm scatter,Northumberland,NU0124,401000,624000,55.509766,-1.9857225,"55.509766,-1.9857225",N/a,N/a,N/a,N/a,"Cinerary urn,Food Vessel,Accessory Vessel,Pottery",,,,,,,N/a,,,,1950,207
Low Hauxley cist 1,Northumberland,NU284018,428400,601800,55.309475,-1.5541400,"55.309475,-1.5541400",Cremation,1,Indet.,Adult,Beaker,Indet.,Adult,Beaker,,,,Indet.,2050,1850,1950,1990,208
Low Hauxley cist 2,Northumberland,NU284018,428400,601800,55.309475,-1.5541400,"55.309475,-1.5541400",Crouched burial,1,Male,Child,"Beaker,Flint flakes",Male,Child,"Beaker, Flint flakes",,,,,2200,1800,2000,1990,209
Low Hauxley erosion cairn cremation pit,Northumberland,NU2840181,428400,601810,55.309565,-1.5541390,"55.309565,-1.5541390",Cremation,1,Male,Adult,Beaker,Male,Adult,Beaker,,,,,1900,1700,1800,2000,210
Low Hauxley erosion cairn square cist,Northumberland,NU2840182,428400,601820,55.309655,-1.5541380,"55.309655,-1.5541380",Cremation,1,Indet.,Adult,,Indet.,Adult,,,,,Indet.,2000,1850,1925,2000,211
"Low Hills round barrow (Easington), cist 1",County Durham,NZ413415,441300,541500,54.766738,-1.3596259,"54.766738,-1.3596259",Cremation,N/a,N/a,N/a,Flint knife,,,,,,,N/a,2300,1750,2025,1900,212
"Low Hills round barrow (Easington), cist 2",County Durham,NZ413415,441300,541500,54.766738,-1.3596259,"54.766738,-1.3596259",Uncremated remains,N/a,N/a,N/a,,,,,,,,N/a,2300,1700,2000,1900,213
"Low Hills round barrow (Easington), cist 3",County Durham,NZ413415,441300,541500,54.766738,-1.3596259,"54.766738,-1.3596259",Uncremated remains,N/a,N/a,N/a,,,,,,,,N/a,2300,1700,2000,1900,214
"Low Shield Green Crag barrow, cremation 1",Northumberland,NY8879,388000,579000,55.105263,-2.1896171,"55.105263,-2.1896171",Cremation,N/a,N/a,N/a,Urn,,,,,,,N/a,2000,,2000,1880,215
"Low Shield Green Crag barrow, cremation 2",Northumberland,NY8879,388000,579000,55.105263,-2.1896171,"55.105263,-2.1896171",Cremation,N/a,N/a,N/a,Urn,,,,,,,N/a,2000,,2000,1880,216
Low Trewhitt North Moor cist 1,Northumberland,NU001047,400100,604700,55.336346,-1.9999717,"55.336346,-1.9999717",Uncremated remains,N/a,N/a,N/a,Beaker,,,,,,,N/a,2300,1800,2050,1900,217
Low Trewhitt North Moor cist 2,Northumberland,NU001047,400100,604700,55.336346,-1.9999717,"55.336346,-1.9999717",Uncremated remains,1,Indet.,Child,"Pottery,Flint flakes",Indet.,Child,"Pottery, Flint flakes",,,,Indet.,2300,1800,2050,1900,218
Low Trewhitt North Moor cist 3,Northumberland,NU001047,400100,604700,55.336346,-1.9999717,"55.336346,-1.9999717",Uncremated remains,N/a,Indet.,Indet.,,,,,,,,Indet.,2300,1750,2025,1900,219
"Lowstead Ground cist, Howick",Northumberland,NU245175,424500,617500,55.450754,-1.6142084,"55.450754,-1.6142084",Crouched burial,1,Indet.,Indet.,Urn,Indet.,Indet.,Urn,,,,Indet.,2300,1750,2025,1830,220
Middle Gunnar Peak cremation deposit 1,Northumberland,NY91507500,391500,575000,55.069392,-2.1346398,"55.069392,-2.1346398",Cremation,1,Indet.,Child,"Cordoned urn,Bone knife",Indet.,Child,"Cordoned urn, Bone knife",,,,Indet.,1800,1500,1650,1970,221
Middle Gunnar Peak cremation deposit 2,Northumberland,NY91507500,391500,575000,55.069392,-2.1346398,"55.069392,-2.1346398",Cremation,1,Indet.,Child,Urn,Indet.,Child,Urn,,,,Indet.,1800,1500,1650,1970,222
Millfield North henge ditch,Northumberland,NT934348,393400,634800,55.606762,-2.1063200,"55.606762,-2.1063200",Cremation,Indet.,Indet.,Indet.,,,,,,,,Indet.,2350,1900,2125,1970,223
Millfield North henge pit A cist,Northumberland,NT934348,393400,634800,55.606762,-2.1063200,"55.606762,-2.1063200",Uncremated remains,N/a,N/a,N/a,,,,,,,,N/a,2300,1750,2025,1970,224
Millfield North henge pit B (probable grave),Northumberland,NT934348,393400,634800,55.606762,-2.1063200,"55.606762,-2.1063200",Uncremated remains,N/a,N/a,N/a,Flint scraper,,,,,,,N/a,2100,1800,1950,1970,225
Millfield North henge pit C (probable grave),Northumberland,NT934348,393400,634800,55.606762,-2.1063200,"55.606762,-2.1063200",Uncremated remains,N/a,N/a,N/a,Beaker,,,,,,,N/a,2050,1850,1950,1970,226
Millfield North henge pit D (probable grave),Northumberland,NT934348,393400,634800,55.606762,-2.1063200,"55.606762,-2.1063200",Uncremated remains,N/a,N/a,N/a,,,,,,,,N/a,,,,1970,227
Millstone Hill kerbed cairn c1 cremation deposit,Northumberland,NU088261,408800,626100,55.528559,-1.8621548,"55.528559,-1.8621548",Cremation,1,Indet.,Adult,Cinerary urn,Indet.,Adult,Cinerary urn,,,,Indet.,2000,,2000,1970,228
Millstone Hill kerbed cairn c2 cremation deposit,Northumberland,NU088261,408800,626100,55.528559,-1.8621548,"55.528559,-1.8621548",Cremation,1,Indet.,Adolescent,,Indet.,Adolescent,,,,,Indet.,2000,,2000,1970,229
Millstone Hill kerbed cairn c3 cremation deposit,Northumberland,NU088261,408800,626100,55.528559,-1.8621548,"55.528559,-1.8621548",Cremation,Indet.,Indet.,Indet.,,,,,,,,Indet.,2000,,2000,1970,230
Murton Moor round barrow,County Durham,NZ38184600,438180,546000,54.807421,-1.4075242,"54.807421,-1.4075242",Cremation,N/a,N/a,N/a,"Flint knife,Flint scraper,Flint flakes",,,,,,,N/a,2200,1500,1850,1910,231
North Charlton cist 1,Northumberland,NU1722,417000,622000,55.491505,-1.7325083,"55.491505,-1.7325083",Uncremated remains,N/a,N/a,N/a,,,,,,,,N/a,2300,1750,2025,1820,232
North Charlton cist 2,Northumberland,NU1722,417000,622000,55.491505,-1.7325083,"55.491505,-1.7325083",Uncremated remains,1,N/a,N/a,Bronze dagger,N/a,N/a,Bronze dagger,,,,N/a,2200,1950,2075,1820,233
North Hazelrigg cist,Northumberland,NU06053345,406050,633450,55.594642,-1.9055600,"55.594642,-1.9055600",Uncremated remains,N/a,N/a,N/a,Beaker,,,,,,,N/a,2300,2200,2250,1970,234
Pace Hill (Crookham) cist 1,Northumberland,NT913375,391300,637500,55.630989,-2.1397389,"55.630989,-2.1397389",Uncremated remains,N/a,N/a,N/a,,,,,,,,N/a,2300,1750,2025,1980,235
Pace Hill (Crookham) cist 2,Northumberland,NT913375,391300,637500,55.630989,-2.1397389,"55.630989,-2.1397389",Uncremated remains,N/a,N/a,N/a,,,,,,,,N/a,2300,1750,2025,1980,236
Pace Hill (Crookham) cist 3,Northumberland,NT913375,391300,637500,55.630989,-2.1397389,"55.630989,-2.1397389",Uncremated remains,N/a,N/a,N/a,,,,,,,,N/a,2300,1750,2025,1980,237
Pace Hill (Crookham) pit,Northumberland,NT913375,391300,637500,55.630989,-2.1397389,"55.630989,-2.1397389",Uncremated remains,N/a,N/a,N/a,Beaker,,,,,,,N/a,2200,2000,2100,1980,238
Pace Hill (Crookham) unknown feature,Northumberland,NT913375,391300,637500,55.630989,-2.1397389,"55.630989,-2.1397389",Cremation,N/a,N/a,N/a,"Urn,Jet necklace",,,,,,,N/a,2150,1750,1950,1860,239
Pitland Hills barrow 1 cist 1,Northumberland,NY8879,388000,579000,55.105263,-2.1896171,"55.105263,-2.1896171",Crouched burial,1,Possible Male,Adult,Food Vessel,Possible Male,Adult,Food Vessel,,,,,2150,1750,1950,1880,240
Pitland Hills barrow 1 cist 2,Northumberland,NY8879,388000,579000,55.105263,-2.1896171,"55.105263,-2.1896171",Uncremated remains,N/a,N/a,N/a,,,,,,,,N/a,2300,1750,2025,1880,241
Pitland Hills barrow 1 cremation 2,Northumberland,NY8879,388000,579000,55.105263,-2.1896171,"55.105263,-2.1896171",Cremation,N/a,Indet.,Indet.,,,,,,,,Indet.,2000,,2000,1880,242
Pitland Hills barrow 1 cremation deposit 1,Northumberland,NY8879,388000,579000,55.105263,-2.1896171,"55.105263,-2.1896171",Cremation,1,Indet.,Child,Urn,Indet.,Child,Urn,,,,Indet.,2000,,2000,1880,243
Pitland Hills barrow 2 pit,Northumberland,NY8879,388000,579000,55.105263,-2.1896171,"55.105263,-2.1896171",Cremation,N/a,Indet.,Indet.,"Cinerary urn,Accessory Vessel",,,,,,,Indet.,2000,,2000,1880,244
Pitland Hills barrow 3 grave,Northumberland,NY8879,388000,579000,55.105263,-2.1896171,"55.105263,-2.1896171",Crouched burial,1,Possible Male,Adult,,Possible Male,Adult,,,,,,2300,1750,2025,1880,245
Plessy Mill cremation deposit 1,Northumberland,NZ241793,424100,579300,55.107526,-1.6237894,"55.107526,-1.6237894",Cremation,N/a,Indet.,Indet.,Collared urn,,,,,,,Indet.,2000,1500,1750,,246
Plessy Mill cremation deposit 2,Northumberland,NZ241793,424100,579300,55.107526,-1.6237894,"55.107526,-1.6237894",Cremation,N/a,Indet.,Indet.,Food Vessel,,,,,,,Indet.,2150,1750,1950,,247
Plessy Mill cremation deposit 3,Northumberland,NZ241793,424100,579300,55.107526,-1.6237894,"55.107526,-1.6237894",Cremation,N/a,Indet.,Indet.,Food Vessel,,,,,,,Indet.,2150,1750,1950,,248
Ravensheugh cairn 2 cist (Dixon Spital Hill/Simonside Hills burial no. 10),Northumberland,NZ015989,401500,598900,55.284227,-1.9779302,"55.284227,-1.9779302",Uncremated remains,N/a,N/a,N/a,,,,,,,,N/a,2300,1750,2025,1880,249
Rayheugh cairn 1 cist,Northumberland,NU116268,411600,626800,55.534791,-1.8177708,"55.534791,-1.8177708",Crouched burial,1,Indet.,Adult,Beaker,Indet.,Adult,Beaker,,,,Indet.,2300,2100,2200,1860,250
Rayheugh cairn 2 burial,Northumberland,NU117267,411700,626700,55.533890,-1.8161906,"55.533890,-1.8161906",Uncremated remains,N/a,N/a,N/a,,,,,,,,N/a,2450,1700,2075,1860,251
Rayheugh cairn 3 cist,Northumberland,NU118267,411800,626700,55.533888,-1.8146063,"55.533888,-1.8146063",Uncremated remains,N/a,N/a,N/a,,,,,,,,N/a,2300,1750,2025,1860,252
Rayheugh cairn 4 cist,Northumberland,NU118264,411800,626400,55.531192,-1.8146190,"55.531192,-1.8146190",Uncremated remains,N/a,Indet.,Indet.,,,,,,,,Indet.,2300,1750,2025,1860,253
Reaverhill Farm cist,Northumberland,NY907737,390700,573700,55.057695,-2.1471242,"55.057695,-2.1471242",Uncremated remains,1,Male,Adult,Bronze dagger,Male,Adult,Bronze dagger,,,,,2135,1950,2042,1960,254
Rosebrough Moor cairn 1 cist ,Northumberland,NU118260,411800,626000,55.527598,-1.8146358,"55.527598,-1.8146358",Crouched burial,1,Indet.,Adult,Beaker,Indet.,Adult,Beaker,,,,Indet.,2300,2100,2200,1870,255
Rosebrough Moor cairn 1 cremation deposit 1 ,Northumberland,NU118260,411800,626000,55.527598,-1.8146358,"55.527598,-1.8146358",Multiple cremation,2,Multiple,Adult,"Food Vessel,Flint knife",,,"Food Vessel, Flint knife",Possible Female + Indet.,Adult,,,1950,1700,1825,1870,256
Rosebrough Moor cairn 2 cremation deposit 1,Northumberland,NU1326,413000,626000,55.527568,-1.7956270,"55.527568,-1.7956270",Cremation,1,Indet.,Adult,"Collared urn,Bone pin",Indet.,Adult,"Collared urn, Bone pin",,,,Indet.,2000,1500,1750,1870,257
Rosebrough Moor cairn 3 burial,Northumberland,NU1326,413000,626000,55.527568,-1.7956270,"55.527568,-1.7956270",Crouched burial,N/a,N/a,N/a,,,,,,,,N/a,,,,1870,258
Roseden Edge burial,Northumberland,NU0221 (see note),402000,621000,55.482807,-1.9699092,"55.482807,-1.9699092",Uncremated remains,N/a,Indet.,Indet.,Food Vessel,,,,,,,Indet.,2150,1750,1950,1830,259
Roseden Edge cremation deposit,Northumberland,NU0221 (see note),402000,621000,55.482807,-1.9699092,"55.482807,-1.9699092",Cremation,N/a,Indet.,Indet.,Accessory Vessel,,,,,,,Indet.,2000,1500,1750,1830,260
Sacriston,County Durham,NZ23814767,423810,547670,54.823313,-1.6309477,"54.823313,-1.6309477",Crouched burial,N/a,N/a,N/a,Beaker,,,,,,,N/a,2300,2100,2200,1880,261
Sandyford Park cist,Northumberland,Unknown,,,,,,Crouched burial,1,Possible Male,Adult,Food Vessel,Possible Male,Adult,Food Vessel,,,,,2150,1750,1950,1820,262
Seafield Farm cist 1,Northumberland,NU 21603202,421600,632000,55.581176,-1.6589325,"55.581176,-1.6589325",Crouched burial,1,Possible Male,Adult,Food Vessel,Possible Male,Adult,Food Vessel,,,,,2150,1750,1950,1900,263
Seafield Farm cist 2,Northumberland,NU 21603202,421600,632000,55.581176,-1.6589325,"55.581176,-1.6589325",Crouched burial,N/a,N/a,N/a,Food Vessel,,,,,,,N/a,2150,1750,1950,1900,264
Seafield Farm cist 3,Northumberland,NU 21603202,421600,632000,55.581176,-1.6589325,"55.581176,-1.6589325",Crouched burial,N/a,N/a,N/a,Food Vessel,,,,,,,N/a,2150,1750,1950,1900,265
Seafield Farm cist 4,Northumberland,NU 21603202,421600,632000,55.581176,-1.6589325,"55.581176,-1.6589325",Uncremated remains,N/a,N/a,N/a,,,,,,,,N/a,2300,1700,2000,1900,266
Seafield Farm cist 5,Northumberland,NU 21603202,421600,632000,55.581176,-1.6589325,"55.581176,-1.6589325",Uncremated remains,N/a,N/a,N/a,,,,,,,,N/a,2300,1700,2000,1900,267
Seafield Farm cist 6,Northumberland,NU 21603202,421600,632000,55.581176,-1.6589325,"55.581176,-1.6589325",Crouched burial,1,N/a,Adolescent,Beaker,N/a,Adolescent,Beaker,,,,N/a,2200,2050,2125,1900,268
Seafield Farm grave 1,Northumberland,NU 21603202,421600,632000,55.581176,-1.6589325,"55.581176,-1.6589325",Uncremated remains,N/a,N/a,N/a,,,,,,,,N/a,2300,1700,2000,1900,269
Seghill cist,Northumberland,NZ2874,428000,574000,55.059698,-1.5631809,"55.059698,-1.5631809",Uncremated remains,1,Indet.,Indet.,Battle Axe,Indet.,Indet.,Battle Axe,,,,Indet.,1900,1700,1800,1860,270
Shipley cist,Northumberland,NU145165,414500,616500,55.442165,-1.7723582,"55.442165,-1.7723582",Crouched burial,1,Female,Adult,"Beaker,Red ochre",Female,Adult,"Beaker, Red ochre",,,,,2200,2050,2125,1950,271
Smalesmouth cist,Northumberland,NY731858,373100,585800,55.165778,-2.4237912,"55.165778,-2.4237912",Uncremated remains,1,Indet.,Indet.,Beaker,Indet.,Indet.,Beaker,,,,Indet.,2200,2100,2150,1860,272
South Charlton cairn cist (Hodgson's 'primary interment'),Northumberland,NU157200,415700,620000,55.473577,-1.7531945,"55.473577,-1.7531945",Uncremated remains,N/a,N/a,N/a,Flint flakes,,,,,,,N/a,2300,1750,2025,1910,273
South Charlton cairn deposit 1 pit,Northumberland,NU157200,415700,620000,55.473577,-1.7531945,"55.473577,-1.7531945",Unclear,N/a,N/a,N/a,Food Vessel,,,,,,,N/a,,,,1910,274
South Charlton cairn deposit 10 cist,Northumberland,NU157200,415700,620000,55.473577,-1.7531945,"55.473577,-1.7531945",Uncremated remains,N/a,Indet.,Indet.,Food Vessel,,,,,,,Indet.,2150,1750,1950,1910,275
South Charlton cairn deposit 11 cist,Northumberland,NU157200,415700,620000,55.473577,-1.7531945,"55.473577,-1.7531945",Uncremated remains,N/a,N/a,N/a,,,,,,,,N/a,2300,1750,2025,1910,276
South Charlton cairn deposit 2 pit,Northumberland,NU157200,415700,620000,55.473577,-1.7531945,"55.473577,-1.7531945",Cremation,N/a,Indet.,Indet.,Food Vessel,,,,,,,Indet.,2000,1700,1850,1910,277
South Charlton cairn deposit 3 pit,Northumberland,NU157200,415700,620000,55.473577,-1.7531945,"55.473577,-1.7531945",Cremation,N/a,Indet.,Indet.,Food Vessel,,,,,,,Indet.,2000,1700,1850,1910,278
South Charlton cairn deposit 4,Northumberland,NU157200,415700,620000,55.473577,-1.7531945,"55.473577,-1.7531945",Cremation,N/a,Indet.,Indet.,"Collared urn,Accessory Vessel",,,,,,,Indet.,2000,1500,1750,1910,279
South Charlton cairn deposit 5,Northumberland,NU157200,415700,620000,55.473577,-1.7531945,"55.473577,-1.7531945",Cremation,N/a,Indet.,Indet.,,,,,,,,Indet.,2000,,2000,1910,280
South Charlton cairn deposit 6,Northumberland,NU157200,415700,620000,55.473577,-1.7531945,"55.473577,-1.7531945",Cremation,N/a,Indet.,Indet.,Food Vessel,,,,,,,Indet.,2000,,2000,1910,281
South Charlton cairn deposit 7,Northumberland,NU157200,415700,620000,55.473577,-1.7531945,"55.473577,-1.7531945",Unclear,N/a,N/a,N/a,Food Vessel,,,,,,,N/a,2150,1750,1950,1910,282
South Charlton cairn deposit 8,Northumberland,NU157200,415700,620000,55.473577,-1.7531945,"55.473577,-1.7531945",Cremation,N/a,Indet.,Indet.,Food Vessel,,,,,,,Indet.,2150,1750,1950,1910,283
South Charlton cairn deposit 9,Northumberland,NU157200,415700,620000,55.473577,-1.7531945,"55.473577,-1.7531945",Cremation,N/a,Indet.,Indet.,Food Vessel,,,,,,,Indet.,2150,1750,1950,1910,284
Spital Hill cairn 1 cist (Dixon Spital Hill burial no.1),Northumberland,NZ020992,402000,599200,55.286921,-1.9700563,"55.286921,-1.9700563",Cremation,N/a,Indet.,Indet.,Urn,,,,,,,Indet.,2150,1500,1825,1880,285
Spital Hill cairn 2 cist (Dixon Spital Hill burial no.2),Northumberland,NZ018990 ,401800,599000,55.285125,-1.9732065,"55.285125,-1.9732065",Crouched burial,1,Male,Adult,,Male,Adult,,,,,,2300,1750,2025,1880,286
Spital Hill cairn 3 cist 1 (Dixon Spital Hill burial no. 3),Northumberland,NZ026998,402600,599800,55.292310,-1.9606041,"55.292310,-1.9606041",Uncremated remains,N/a,N/a,N/a,,,,,,,,N/a,2300,1700,2000,1880,287
Spital Hill cairn 4 cist 1 (Dixon Spital Hill burial no. 4),Northumberland,NZ0299 ,402000,599000,55.285124,-1.9700576,"55.285124,-1.9700576",Uncremated remains,N/a,Indet.,Indet.,,,,,,,,Indet.,2300,1700,2000,1880,288
Spital Hill cairn 5 deposit 1 (Dixon Spital Hill burial no.5),Northumberland,NZ0299 ,402000,599000,55.285124,-1.9700576,"55.285124,-1.9700576",Cremation,N/a,Indet.,Indet.,Food Vessel,,,,,,,Indet.,2000,1700,1850,1880,289
Spital Hill cairn 6 cist 1 (Dixon Spital Hill burial no. 6),Northumberland,NZ0299 ,402000,599000,55.285124,-1.9700576,"55.285124,-1.9700576",Uncremated remains,N/a,N/a,N/a,,,,,,,,N/a,2300,1700,2000,1880,290
Spital Hill cairn 7 cist 1 (Dixon Spital Hill burial no. 7),Northumberland,NZ0299 ,402000,599000,55.285124,-1.9700576,"55.285124,-1.9700576",Uncremated remains,N/a,N/a,N/a,,,,,,,,N/a,2300,1700,2000,1880,291
Spital Hill cairn 7 cist 2 (Dixon Spital Hill burial no. 7),Northumberland,NZ0299 ,402000,599000,55.285124,-1.9700576,"55.285124,-1.9700576",Multiple cremation,Indet.,Indet.,Indet.,,,,,,,,Indet.,2300,1700,2000,1880,292
Spital Hill cairn 7 cremation deposit 1 (Dixon Spital Hill burial no. 7),Northumberland,NZ0299 ,402000,599000,55.285124,-1.9700576,"55.285124,-1.9700576",Cremation,Indet.,Indet.,Indet.,"Food Vessel,Flint knife",,,,,,,Indet.,2000,1500,1750,1880,293
Spital Hill cairn 8 cist 1 (Dixon Spital Hills burial no. 8),Northumberland,NZ0299 ,402000,598000,55.276139,-1.9700643,"55.276139,-1.9700643",Uncremated remains,N/a,N/a,N/a,,,,,,,,N/a,2300,1700,2000,1880,294
Spital Hill cairn 8 cist 2  (Dixon Spital Hill burial no. 8),Northumberland,NZ0298,402000,598000,55.276139,-1.9700643,"55.276139,-1.9700643",Cremation,N/a,Indet.,Indet.,,,,,,,,Indet.,2300,1700,2000,1880,295
Steeple Hill cist ,Tyne and Wear,NZ383529,438300,552900,54.869414,-1.4047461,"54.869414,-1.4047461",Inhumation and Cremation,2,Multiple,Multiple age groups,Food Vessel,,,Food Vessel,Male + Indet.,Adult + Juvenile,,,2150,1750,1950,1870,296
Steeple Hill grave with stone settings,Tyne and Wear,NZ383529,438300,552900,54.869414,-1.4047461,"54.869414,-1.4047461",Crouched burial,1,Possible Female,Senior,,Possible Female,Senior,,,,,,2450,1700,2075,1870,297
Summerhill (Blaydon) cist 1,Tyne and Wear,NZ17716351,417710,563510,54.965905,-1.7249189,"54.965905,-1.7249189",Crouched burial,1,Female,Adult,Beaker,Female,Adult,Beaker,,,,,2200,2100,2150,1930,298
Summerhill (Blaydon) cist 2,Tyne and Wear,NZ17506339,417500,563390,54.964834,-1.7282061,"54.964834,-1.7282061",Crouched burial,1,Male,Adult,Flint knife,Male,Adult,Flint knife,,,,,2300,1750,2025,1930,299
Summerhill (Blaydon) cist 3,Tyne and Wear,NZ17486340,417480,563400,54.964925,-1.7285179,"54.964925,-1.7285179",Crouched burial,2,Indet.,Adult,Food Vessel,,,Food Vessel,Indet.,Adult,,Indet.,2150,1750,1950,1930,300
Summerhill (Blaydon) cist 4,Tyne and Wear,NZ17476341,417470,563410,54.965015,-1.7286735,"54.965015,-1.7286735",Crouched burial,2,Multiple,Adolescent,Beaker,,,,Female + Indet.,Adolescent,Beaker,,2250,1950,2100,1930,301
The Sneep cist,Northumberland,NY792885 ,379200,588500,55.190335,-2.3282407,"55.190335,-2.3282407",Crouched burial,1,Female,Adult,"Beaker,Flint flakes",Female,Adult,"Beaker, Flint flakes",,,,,2300,2100,2200,1880,302
Tom Tallon's Grave cist,Northumberland,NT932280 ,393200,628000,55.545659,-2.1093242,"55.545659,-2.1093242",Crouched burial,1,Indet.,Indet.,Food Vessel,Indet.,Indet.,Food Vessel,,,,Indet.,2150,1750,1950,1850,303
Trow Rocks cist,Tyne and Wear,NZ384667,438400,566700,54.993410,-1.4013500,"54.993410,-1.4013500",Crouched burial,1,Possible Male,Adult,Flint knife,Possible Male,Adult,Flint knife,,,,,2300,1750,2025,1870,304
Turf Knowe North central cist,Northumberland,NU006157 ,400600,615700,55.435187,-1.9920704,"55.435187,-1.9920704",Cremation,1,Female,Adult,"Food Vessel,Jet beads,Flint flakes",Female,Adult,"Food Vessel, Jet beads, Flint flakes",,,,,1750,1530,1640,1990,305
Turf Knowe North central cist,Northumberland,NU006157 ,400600,615700,55.435187,-1.9920704,"55.435187,-1.9920704",Multiple cremation,2,Indet.,Multiple age groups,,,,,Indet.,Adult + Juvenile,,Indet.,1940,1680,1810,1990,306
Turf Knowe North cremation insertion 1,Northumberland,NU006157 ,400600,615700,55.435187,-1.9920704,"55.435187,-1.9920704",Multiple cremation,2,Indet.,Multiple age groups,Urn,,,Urn,Indet.,Adult + Juvenile,,Indet.,2000,1750,1875,1990,307
Turf Knowe North cremation insertion 2,Northumberland,NU006157 ,400600,615700,55.435187,-1.9920704,"55.435187,-1.9920704",Multiple cremation,2,Multiple,Multiple age groups,Bone pin,,,,Male + Indet.,Adult + Juvenile,Bone pin,,1880,1620,1750,1990,308
Turf Knowe North cremation insertion 3,Northumberland,NU006157 ,400600,615700,55.435187,-1.9920704,"55.435187,-1.9920704",Cremation,1,Possible Female,Adolescent,,Possible Female,Adolescent,,,,,,2130,1880,2005,1990,309
Turf Knowe North cremation pyre debris insertion 1,Northumberland,NU006157 ,400600,615700,55.435187,-1.9920704,"55.435187,-1.9920704",Multiple cremation,2,Multiple,Multiple age groups,Bone pin,,,,Possible Male + Possible Juvenile Female,Adult + Juvenile,Bone pin,,1880,1620,1750,1990,310
Turf Knowe North cremation pyre debris insertion 2,Northumberland,NU006157 ,400600,615700,55.435187,-1.9920704,"55.435187,-1.9920704",Cremation,1,Indet.,Adult,,Indet.,Adult,,,,,Indet.,2130,1880,2005,1990,311
Turf Knowe North southern cist,Northumberland,NU006157 ,400600,615700,55.435187,-1.9920704,"55.435187,-1.9920704",Multiple cremation,3,Indet.,Multiple age groups,,,,,Indet.,Adult + Juvenile,,Indet.,1750,1550,1650,1990,312
Turf Knowe South tri-radial cairn eastern cist (1/A),Northumberland,NU006157 ,400600,615700,55.435187,-1.9920704,"55.435187,-1.9920704",Uncremated remains,N/a,N/a,N/a,,,,,,,,N/a,,,,1990,313
Turf Knowe South tri-radial cairn pit 2,Northumberland,NU006157 ,400600,615700,55.435187,-1.9920704,"55.435187,-1.9920704",Uncremated remains,N/a,N/a,N/a,"Food Vessel,Flint flakes",,,,,,,N/a,,,,1990,314
Turf Knowe South tri-radial cairn western cist (2/B),Northumberland,NU006157 ,400600,615700,55.435187,-1.9920704,"55.435187,-1.9920704",Cremation,1,Indet.,Adult,Iron spearhead,Indet.,Adult,Iron spearhead,,,,Indet.,2130,1870,2000,1990,315
Turf Knowe South tri-radial cairn western cist (2/C),Northumberland,NU006157 ,400600,615700,55.435187,-1.9920704,"55.435187,-1.9920704",Cremation,1,Indet.,Adult,Food Vessel,Indet.,Adult,Food Vessel,,,,Indet.,2030,1770,1900,1990,316
Warden Law cist ,Tyne and Wear,NZ372505,437200,550500,54.847931,-1.4221932,"54.847931,-1.4221932",Cremation,2,Indet.,Multiple age groups,Food Vessel,,,Food Vessel,Indet.,Adult + Juvenile,,Indet.,2025,1887,1956,1970,317
Warkshaugh Farm barrow cist 1,Northumberland,NY867765,386700,576500,55.082764,-2.2098744,"55.082764,-2.2098744",Uncremated remains,N/a,Indet.,Indet.,"Food Vessel,Flint knife",,,,,,,Indet.,2150,1750,1950,1870,318
Warkshaugh Farm barrow cist 2,Northumberland,NY867765,386700,576500,55.082764,-2.2098744,"55.082764,-2.2098744",Uncremated remains,N/a,Indet.,Indet.,,,,,,,,Indet.,2300,1700,2000,1870,319
Warkshaugh Farm barrow cist 3,Northumberland,NY867765,386700,576500,55.082764,-2.2098744,"55.082764,-2.2098744",Uncremated remains,N/a,Indet.,Indet.,,,,,,,,Indet.,2300,1700,2000,1870,320
Warkshaugh Farm barrow cist 4,Northumberland,NY867765,386700,576500,55.082764,-2.2098744,"55.082764,-2.2098744",Uncremated remains,N/a,N/a,N/a,,,,,,,,N/a,2300,1700,2000,1870,321
Warkshaugh Farm barrow cremation deposit 1 (not recorded in Kinnes and Longworth),Northumberland,NY867765,386700,576500,55.082764,-2.2098744,"55.082764,-2.2098744",Unclear,N/a,N/a,N/a,Urn,,,,,,,N/a,2000,1500,1750,1870,322
Warkworth cairn cist 1,Northumberland,NU277043,427700,604300,55.331978,-1.5649215,"55.331978,-1.5649215",Crouched burial,1,Indet.,Indet.,"Bronze dagger,Food Vessel,Flint flakes",Indet.,Indet.,"Bronze dagger, Food Vessel, Flint flakes",,,,Indet.,2200,1650,1925,1880,323
Warkworth cairn cist 2,Northumberland,NU277043,427700,604300,55.331978,-1.5649215,"55.331978,-1.5649215",Uncremated remains,1,Indet.,Child,,Indet.,Child,,,,,Indet.,2300,1750,2025,1880,324
Warkworth cairn cist 3,Northumberland,NU277043,427700,604300,55.331978,-1.5649215,"55.331978,-1.5649215",Cremation,1,Indet.,Indet.,Food Vessel,Indet.,Indet.,Food Vessel,,,,Indet.,2150,1750,1950,1880,325
Warkworth cairn cist 4,Northumberland,NU277043,427700,604300,55.331978,-1.5649215,"55.331978,-1.5649215",Unclear,N/a,N/a,Indet.,Food Vessel,,,,,,,N/a,2150,1750,1950,1880,326
Warkworth cairn cist 5,Northumberland,NU277043,427700,604300,55.331978,-1.5649215,"55.331978,-1.5649215",Unclear,N/a,N/a,Indet.,Food Vessel,,,,,,,N/a,2000,1700,1850,1880,327
Warkworth cairn cist 6,Northumberland,NU277043,427700,604300,55.331978,-1.5649215,"55.331978,-1.5649215",Unclear,N/a,N/a,Indet.,Food Vessel,,,,,,,N/a,2300,1750,2025,1880,328
Warkworth cairn cist 7,Northumberland,NU277043,427700,604300,55.331978,-1.5649215,"55.331978,-1.5649215",Crouched burial,1,Indet.,Adult,,Indet.,Adult,,,,,Indet.,2300,1750,2025,1880,329
Warkworth cairn cist 8,Northumberland,NU277043,427700,604300,55.331978,-1.5649215,"55.331978,-1.5649215",Crouched burial,1,Male,Adult,,Male,Adult,,,,,,2300,1750,2025,1880,330
Warkworth cairn cist 9,Northumberland,NU277043,427700,604300,55.331978,-1.5649215,"55.331978,-1.5649215",Crouched burial,1,Indet.,Indet.,Urn,Indet.,Indet.,Urn,,,,Indet.,2300,1750,2025,1880,331
Warkworth cairn cremation deposit 1,Northumberland,NU277043,427700,604300,55.331978,-1.5649215,"55.331978,-1.5649215",Cremation,N/a,Indet.,Indet.,,,,,,,,Indet.,2150,1700,1925,1880,332
Warkworth cairn cremation deposit 2,Northumberland,NU277043,427700,604300,55.331978,-1.5649215,"55.331978,-1.5649215",Cremation,1,Indet.,Adult,,Indet.,Adult,,,,,Indet.,2150,1700,1925,1880,333
Warkworth cairn vessel insertion,Northumberland,NU277043,427700,604300,55.331978,-1.5649215,"55.331978,-1.5649215",Unclear,N/a,N/a,Indet.,Food Vessel,,,,,,,N/a,2000,1700,1850,1880,334
Well House Farm cist,Northumberland,NZ04046676,404040,566760,54.995405,-1.9383858,"54.995405,-1.9383858",Uncremated remains,N/a,N/a,N/a,"Food Vessel,Jet beads,Flint flakes",,,,,,,N/a,2200,1780,1990,1980,335
West Wharmley cist,Northumberland,NY8866 ,388000,566000,54.988444,-2.1890653,"54.988444,-2.1890653",Crouched burial,2,Indet.,Adult,Beaker,,,,Indet.,Adult,Beaker,Indet.,2300,2100,2200,1920,336
Wether Hill stone cist,Northumberland,NU013145,401300,614500,55.424404,-1.9810129,"55.424404,-1.9810129",Uncremated remains,N/a,N/a,N/a,Food Vessel,,,,,,,N/a,2020,1745,1882,1990,337
Wether Hill wooden cist or coffin,Northumberland,NU013145,401300,614500,55.424404,-1.9810129,"55.424404,-1.9810129",Uncremated remains,N/a,N/a,N/a,Beaker,,,,,,,N/a,2200,1880,2040,1990,338
Wheathall Farm (Whitburn cist 2),Tyne and Wear,NZ40736265,440730,562650,54.956834,-1.3655088,"54.956834,-1.3655088",Crouched burial,1,Indet.,Adult,"Flint arrowhead,Flint flakes",Indet.,Adult,"Flint arrowhead, Flint flakes",,,,Indet.,2300,1750,2025,1920,339
Whitton Hill henge 1 'cremation 2' nr pit 24,Northumberland,NT933347,393300,634700,55.605862,-2.1079048,"55.605862,-2.1079048",Cremation,1,Indet.,Child,Flint knife,Indet.,Child,Flint knife,,,,Indet.,1426,1270,1348,1980,340
Whitton Hill henge 1 'cremation 3' nr pit 24,Northumberland,NT933347,393300,634700,55.605862,-2.1079048,"55.605862,-2.1079048",Cremation,Indet.,Indet.,Indet.,,,,,,,,Indet.,1426,1270,1348,1980,341
Whitton Hill henge 1 'cremation 4' nr pit 24,Northumberland,NT933347,393300,634700,55.605862,-2.1079048,"55.605862,-2.1079048",Cremation,Indet.,Indet.,Indet.,,,,,,,,Indet.,1426,1270,1348,1980,342
Whitton Hill henge 1 pit 28,Northumberland,NT933347,393300,634700,55.605862,-2.1079048,"55.605862,-2.1079048",Cremation,1,Possible Male,Adult,"Food Vessel,Flint flakes",Possible Male,Adult,"Food Vessel, Flint flakes",,,,,1890,1700,1795,1980,343
Whitton Hill henge 1 pit 6,Northumberland,NT933347,393300,634700,55.605862,-2.1079048,"55.605862,-2.1079048",Cremation,Indet.,Indet.,Indet.,,,,,,,,Indet.,3200,1000,2100,1980,344
Whitton Hill henge 1 pit 7,Northumberland,NT933347,393300,634700,55.605862,-2.1079048,"55.605862,-2.1079048",Cremation,Indet.,Indet.,Indet.,,,,,,,,Indet.,3200,1000,2100,1980,345
Whitton Hill henge 1 southern ditch,Northumberland,NT933347,393300,634700,55.605862,-2.1079048,"55.605862,-2.1079048",Cremation,Indet.,Indet.,Indet.,,,,,,,,Indet.,3360,3100,3230,1980,346
Whitton Hill henge 2 pit I,Northumberland,NT933347,393300,634700,55.605862,-2.1079048,"55.605862,-2.1079048",Cremation,1,Indet.,Indet.,,Indet.,Indet.,,,,,Indet.,1500,1100,1300,1980,347
Whitton Hill henge 2 pit Y,Northumberland,NT933347,393300,634700,55.605862,-2.1079048,"55.605862,-2.1079048",Multiple cremation,24,Multiple,Multiple age groups,,,,,Female + Indet.,Adolescent + Juvenile + infant,,,1260,1020,1140,1980,348
Whitton Hill henge 2 pit Z,Northumberland,NT933347,393300,634700,55.605862,-2.1079048,"55.605862,-2.1079048",Cremation,Indet.,Indet.,Indet.,,,,,,,,Indet.,,,,1980,349
Woodhorn cist,Northumberland,NZ2988,429000,588000,55.185440,-1.5461023,"55.185440,-1.5461023",Uncremated remains,1,Indet.,Indet.,Beaker,Indet.,Indet.,Beaker,,,,Indet.,2300,2100,2200,,350
Wooler cist,Northumberland,NT9928,399000,628000,55.545707,-2.0174057,"55.545707,-2.0174057",Crouched burial,1,Male,Adult,Jet button,Male,Adult,Jet button,,,,,2200,1750,1975,1870,351
Yeavering cist,Northumberland,NT92493047,392490,630470,55.567843,-2.1206444,"55.567843,-2.1206444",Uncremated remains,N/a,N/a,N/a,"Food Vessel,Jet beads",,,,,,,N/a,2100,1900,2000,1960,352
Yeavering cremation deposit 1,Northumberland,NT92493047,392490,630470,55.567843,-2.1206444,"55.567843,-2.1206444",Cremation,N/a,Indet.,Indet.,Urn,,,,,,,Indet.,2000,1500,1750,1960,353